CCSDS_OMM_VERS = 2.0
CREATION_DATE  = 
ORIGINATOR     = 

OBJECT_NAME    = SILVERSAT
OBJECT_ID      = 1998-067XV
CENTER_NAME    = EARTH
REF_FRAME      = TEME
TIME_SYSTEM    = UTC
MEAN_ELEMENT_THEORY = SGP/SGP4

EPOCH          = 2026-02-07T17:41:27.258720
MEAN_MOTION    = 15.62808493
ECCENTRICITY   = .0002576
INCLINATION    = 51.6271
RA_OF_ASC_NODE = 217.1469
ARG_OF_PERICENTER = 230.2251
MEAN_ANOMALY   = 129.8516

EPHEMERIS_TYPE = 0
CLASSIFICATION_TYPE = U
NORAD_CAT_ID   = 66909
ELEMENT_SET_NO = 999
REV_AT_EPOCH   = 1049
BSTAR          = .15693217E-2
MEAN_MOTION_DOT = .146297E-2
MEAN_MOTION_DDOT = 0

CCSDS_OMM_VERS = 2.0
CREATION_DATE  = 
ORIGINATOR     = 

OBJECT_NAME    = ISS OBJECT XW
OBJECT_ID      = 1998-067XW
CENTER_NAME    = EARTH
REF_FRAME      = TEME
TIME_SYSTEM    = UTC
MEAN_ELEMENT_THEORY = SGP/SGP4

EPOCH          = 2026-02-07T18:02:22.863264
MEAN_MOTION    = 15.61429611
ECCENTRICITY   = .00009834
INCLINATION    = 51.6262
RA_OF_ASC_NODE = 217.2388
ARG_OF_PERICENTER = 258.5946
MEAN_ANOMALY   = 101.4937

EPHEMERIS_TYPE = 0
CLASSIFICATION_TYPE = U
NORAD_CAT_ID   = 66910
ELEMENT_SET_NO = 999
REV_AT_EPOCH   = 1049
BSTAR          = .1414812E-2
MEAN_MOTION_DOT = .1246E-2
MEAN_MOTION_DDOT = 0

CCSDS_OMM_VERS = 2.0
CREATION_DATE  = 
ORIGINATOR     = 

OBJECT_NAME    = ISS OBJECT XX
OBJECT_ID      = 1998-067XX
CENTER_NAME    = EARTH
REF_FRAME      = TEME
TIME_SYSTEM    = UTC
MEAN_ELEMENT_THEORY = SGP/SGP4

EPOCH          = 2026-02-07T16:59:37.090752
MEAN_MOTION    = 15.64004478
ECCENTRICITY   = .00025167
INCLINATION    = 51.6247
RA_OF_ASC_NODE = 216.9470
ARG_OF_PERICENTER = 264.5889
MEAN_ANOMALY   = 95.4819

EPHEMERIS_TYPE = 0
CLASSIFICATION_TYPE = U
NORAD_CAT_ID   = 66911
ELEMENT_SET_NO = 999
REV_AT_EPOCH   = 1048
BSTAR          = .16908932E-2
MEAN_MOTION_DOT = .165665E-2
MEAN_MOTION_DDOT = 0

CCSDS_OMM_VERS = 2.0
CREATION_DATE  = 
ORIGINATOR     = 

OBJECT_NAME    = ISS OBJECT XY
OBJECT_ID      = 1998-067XY
CENTER_NAME    = EARTH
REF_FRAME      = TEME
TIME_SYSTEM    = UTC
MEAN_ELEMENT_THEORY = SGP/SGP4

EPOCH          = 2026-02-07T17:57:49.059936
MEAN_MOTION    = 15.58603065
ECCENTRICITY   = .00011122
INCLINATION    = 51.6283
RA_OF_ASC_NODE = 217.9746
ARG_OF_PERICENTER = 162.5092
MEAN_ANOMALY   = 197.5939

EPHEMERIS_TYPE = 0
CLASSIFICATION_TYPE = U
NORAD_CAT_ID   = 66912
ELEMENT_SET_NO = 999
REV_AT_EPOCH   = 1047
BSTAR          = .11314625E-2
MEAN_MOTION_DOT = .88919E-3
MEAN_MOTION_DDOT = 0

CCSDS_OMM_VERS = 2.0
CREATION_DATE  = 
ORIGINATOR     = 

OBJECT_NAME    = ISS OBJECT XZ
OBJECT_ID      = 1998-067XZ
CENTER_NAME    = EARTH
REF_FRAME      = TEME
TIME_SYSTEM    = UTC
MEAN_ELEMENT_THEORY = SGP/SGP4

EPOCH          = 2026-02-07T21:18:16.508448
MEAN_MOTION    = 15.49415803
ECCENTRICITY   = .00110736
INCLINATION    = 51.6309
RA_OF_ASC_NODE = 219.6508
ARG_OF_PERICENTER = 90.6637
MEAN_ANOMALY   = 269.5620

EPHEMERIS_TYPE = 0
CLASSIFICATION_TYPE = U
NORAD_CAT_ID   = 67683
ELEMENT_SET_NO = 999
REV_AT_EPOCH   = 16
BSTAR          = .70999449E-3
MEAN_MOTION_DOT = .39523E-3
MEAN_MOTION_DDOT = 0

CCSDS_OMM_VERS = 2.0
CREATION_DATE  = 
ORIGINATOR     = 

OBJECT_NAME    = ISS OBJECT YA
OBJECT_ID      = 1998-067YA
CENTER_NAME    = EARTH
REF_FRAME      = TEME
TIME_SYSTEM    = UTC
MEAN_ELEMENT_THEORY = SGP/SGP4

EPOCH          = 2026-02-07T21:17:10.548960
MEAN_MOTION    = 15.49820253
ECCENTRICITY   = .00130841
INCLINATION    = 51.6308
RA_OF_ASC_NODE = 219.6466
ARG_OF_PERICENTER = 86.5540
MEAN_ANOMALY   = 273.6945

EPHEMERIS_TYPE = 0
CLASSIFICATION_TYPE = U
NORAD_CAT_ID   = 67684
ELEMENT_SET_NO = 999
REV_AT_EPOCH   = 16
BSTAR          = .11369581E-2
MEAN_MOTION_DOT = .64754E-3
MEAN_MOTION_DDOT = 0

CCSDS_OMM_VERS = 2.0
CREATION_DATE  = 
ORIGINATOR     = 

OBJECT_NAME    = LEOPARD
OBJECT_ID      = 1998-067YB
CENTER_NAME    = EARTH
REF_FRAME      = TEME
TIME_SYSTEM    = UTC
MEAN_ELEMENT_THEORY = SGP/SGP4

EPOCH          = 2026-02-07T21:18:00.694656
MEAN_MOTION    = 15.49499945
ECCENTRICITY   = .00130411
INCLINATION    = 51.6310
RA_OF_ASC_NODE = 219.6497
ARG_OF_PERICENTER = 85.9185
MEAN_ANOMALY   = 274.3294

EPHEMERIS_TYPE = 0
CLASSIFICATION_TYPE = U
NORAD_CAT_ID   = 67685
ELEMENT_SET_NO = 999
REV_AT_EPOCH   = 16
BSTAR          = .74417641E-3
MEAN_MOTION_DOT = .41622E-3
MEAN_MOTION_DDOT = 0

CCSDS_OMM_VERS = 2.0
CREATION_DATE  = 
ORIGINATOR     = 

OBJECT_NAME    = ISS OBJECT YC
OBJECT_ID      = 1998-067YC
CENTER_NAME    = EARTH
REF_FRAME      = TEME
TIME_SYSTEM    = UTC
MEAN_ELEMENT_THEORY = SGP/SGP4

EPOCH          = 2026-02-07T21:17:52.687104
MEAN_MOTION    = 15.49573070
ECCENTRICITY   = .0007818
INCLINATION    = 51.6317
RA_OF_ASC_NODE = 219.6496
ARG_OF_PERICENTER = 64.2438
MEAN_ANOMALY   = 295.9357

EPHEMERIS_TYPE = 0
CLASSIFICATION_TYPE = U
NORAD_CAT_ID   = 67686
ELEMENT_SET_NO = 999
REV_AT_EPOCH   = 16
BSTAR          = .83197059E-3
MEAN_MOTION_DOT = .4664E-3
MEAN_MOTION_DDOT = 0

CCSDS_OMM_VERS = 2.0
CREATION_DATE  = 
ORIGINATOR     = 

OBJECT_NAME    = CORAL
OBJECT_ID      = 1998-067YD
CENTER_NAME    = EARTH
REF_FRAME      = TEME
TIME_SYSTEM    = UTC
MEAN_ELEMENT_THEORY = SGP/SGP4

EPOCH          = 2026-02-07T21:18:07.300800
MEAN_MOTION    = 15.49469765
ECCENTRICITY   = .00079087
INCLINATION    = 51.6314
RA_OF_ASC_NODE = 219.6510
ARG_OF_PERICENTER = 65.3596
MEAN_ANOMALY   = 294.8215

EPHEMERIS_TYPE = 0
CLASSIFICATION_TYPE = U
NORAD_CAT_ID   = 67687
ELEMENT_SET_NO = 999
REV_AT_EPOCH   = 8
BSTAR          = .70694241E-3
MEAN_MOTION_DOT = .39381E-3
MEAN_MOTION_DDOT = 0

CCSDS_OMM_VERS = 2.0
CREATION_DATE  = 
ORIGINATOR     = 

OBJECT_NAME    = GXIBA-1
OBJECT_ID      = 1998-067YE
CENTER_NAME    = EARTH
REF_FRAME      = TEME
TIME_SYSTEM    = UTC
MEAN_ELEMENT_THEORY = SGP/SGP4

EPOCH          = 2026-02-07T19:45:01.390464
MEAN_MOTION    = 15.49552993
ECCENTRICITY   = .00078109
INCLINATION    = 51.6319
RA_OF_ASC_NODE = 219.9696
ARG_OF_PERICENTER = 64.9046
MEAN_ANOMALY   = 295.2753

EPHEMERIS_TYPE = 0
CLASSIFICATION_TYPE = U
NORAD_CAT_ID   = 67688
ELEMENT_SET_NO = 999
REV_AT_EPOCH   = 7
BSTAR          = .96012611E-3
MEAN_MOTION_DOT = .53906E-3
MEAN_MOTION_DDOT = 0

